[{"OBJECT_NAME":"STARLINK-33732","OBJECT_ID":"2025-076G","EPOCH":"2026-03-09T23:36:27.998496","MEAN_MOTION":15.27592039,"ECCENTRICITY":8.605e-5,"INCLINATION":42.9986,"RA_OF_ASC_NODE":320.1898,"ARG_OF_PERICENTER":231.0739,"MEAN_ANOMALY":129.0036,"EPHEMERIS_TYPE":0,"CLASSIFICATION_TYPE":"U","NORAD_CAT_ID":63575,"ELEMENT_SET_NO":999,"REV_AT_EPOCH":5187,"BSTAR":0.00082909865,"MEAN_MOTION_DOT":0.00022631,"MEAN_MOTION_DDOT":0},{"OBJECT_NAME":"OBJECT G","OBJECT_ID":"2025-155G","EPOCH":"2026-03-09T22:09:56.639808","MEAN_MOTION":15.27590702,"ECCENTRICITY":0.00081871,"INCLINATION":97.4488,"RA_OF_ASC_NODE":37.3259,"ARG_OF_PERICENTER":154.1528,"MEAN_ANOMALY":206.0122,"EPHEMERIS_TYPE":0,"CLASSIFICATION_TYPE":"U","NORAD_CAT_ID":64882,"ELEMENT_SET_NO":999,"REV_AT_EPOCH":6559,"BSTAR":0.0004792617,"MEAN_MOTION_DOT":0.00012876,"MEAN_MOTION_DDOT":0}]
